[{"OBJECT_NAME":"STARLINK-34389","OBJECT_ID":"2025-126H","EPOCH":"2026-03-09T07:09:09.980352","MEAN_MOTION":14.98333821,"ECCENTRICITY":0.00026918,"INCLINATION":70.0032,"RA_OF_ASC_NODE":35.4241,"ARG_OF_PERICENTER":269.3836,"MEAN_ANOMALY":90.7015,"EPHEMERIS_TYPE":0,"CLASSIFICATION_TYPE":"U","NORAD_CAT_ID":64351,"ELEMENT_SET_NO":999,"REV_AT_EPOCH":4062,"BSTAR":0.00041670904,"MEAN_MOTION_DOT":4.883e-5,"MEAN_MOTION_DDOT":0},{"OBJECT_NAME":"SL-6 R\/B(2)","OBJECT_ID":"1990-055D","EPOCH":"2026-03-09T21:41:59.551872","MEAN_MOTION":15.03595553,"ECCENTRICITY":0.00247741,"INCLINATION":62.7825,"RA_OF_ASC_NODE":253.121,"ARG_OF_PERICENTER":347.1508,"MEAN_ANOMALY":12.8957,"EPHEMERIS_TYPE":0,"CLASSIFICATION_TYPE":"U","NORAD_CAT_ID":20666,"ELEMENT_SET_NO":999,"REV_AT_EPOCH":93822,"BSTAR":0.00020900577,"MEAN_MOTION_DOT":2.688e-5,"MEAN_MOTION_DDOT":0}]
